{"type": "FeatureCollection", "features": [ {"type": "Feature", "properties": {"norad_id": 66817, "name": "STARLINK-35995", "group": "last-30-days", "lat": -42.513063996921396, "lon": 136.21513760101314, "alt_km": 360.03712743470805, "timestamp": "2025-12-18T15:47:09.960292+00:00", "meta": {"OBJECT_NAME": "STARLINK-35995", "OBJECT_ID": "2025-278AC", "EPOCH": "2025-12-18T06:00:02.999808", "MEAN_MOTION": 15.72029592, "ECCENTRICITY": 0.00015963, "INCLINATION": 42.9994, "RA_OF_ASC_NODE": 218.3577, "ARG_OF_PERICENTER": 273.5689, "MEAN_ANOMALY": 215.0972, "EPHEMERIS_TYPE": 0, "CLASSIFICATION_TYPE": "U", "NORAD_CAT_ID": 66817, "ELEMENT_SET_NO": 999, "REV_AT_EPOCH": 384, "BSTAR": -0.016444611, "MEAN_MOTION_DOT": -0.01963059, "MEAN_MOTION_DDOT": 0}, "tle": {"line1": "1 66817U 25278AC  25352.25003472 -.01963059  00000+0 -16445-1 0  9997", "line2": "2 66817  42.9994 218.3577 0001596 273.5689 215.0972 15.72029592  3844"}}, "geometry": {"type": "Point", "coordinates": [136.21513760101314, -42.513063996921396]}}, {"type": "Feature", "properties": {"norad_id": 66818, "name": "STARLINK-35994", "group": "last-30-days", "lat": -42.71752260894895, "lon": 133.63304579849466, "alt_km": 360.1382447804335, "timestamp": "2025-12-18T15:47:09.960513+00:00", "meta": {"OBJECT_NAME": "STARLINK-35994", "OBJECT_ID": "2025-278AD", "EPOCH": "2025-12-18T06:00:02.999808", "MEAN_MOTION": 15.7202501, "ECCENTRICITY": 0.00014647, "INCLINATION": 42.9991, "RA_OF_ASC_NODE": 218.3628, "ARG_OF_PERICENTER": 277.2308, "MEAN_ANOMALY": 209.5231, "EPHEMERIS_TYPE": 0, "CLASSIFICATION_TYPE": "U", "NORAD_CAT_ID": 66818, "ELEMENT_SET_NO": 999, "REV_AT_EPOCH": 384, "BSTAR": -0.016405745, "MEAN_MOTION_DOT": -0.0195851, "MEAN_MOTION_DDOT": 0}, "tle": {"line1": "1 66818U 25278AD  25352.25003472 -.01958510  00000+0 -16406-1 0  9991", "line2": "2 66818  42.9991 218.3628 0001464 277.2308 209.5231 15.72025010  3849"}}, "geometry": {"type": "Point", "coordinates": [133.63304579849466, -42.71752260894895]}}, {"type": "Feature", "properties": {"norad_id": 66819, "name": "STARLINK-35989", "group": "last-30-days", "lat": -42.250006450070416, "lon": 138.777759305575, "alt_km": 360.02688892378774, "timestamp": "2025-12-18T15:47:09.960527+00:00", "meta": {"OBJECT_NAME": "STARLINK-35989", "OBJECT_ID": "2025-278AE", "EPOCH": "2025-12-18T06:00:02.999808", "MEAN_MOTION": 15.72023376, "ECCENTRICITY": 0.00015919, "INCLINATION": 42.9989, "RA_OF_ASC_NODE": 218.3522, "ARG_OF_PERICENTER": 273.7014, "MEAN_ANOMALY": 216.8846, "EPHEMERIS_TYPE": 0, "CLASSIFICATION_TYPE": "U", "NORAD_CAT_ID": 66819, "ELEMENT_SET_NO": 999, "REV_AT_EPOCH": 384, "BSTAR": -0.016363062, "MEAN_MOTION_DOT": -0.01953985, "MEAN_MOTION_DDOT": 0}, "tle": {"line1": "1 66819U 25278AE  25352.25003472 -.01953985  00000+0 -16363-1 0  9995", "line2": "2 66819  42.9989 218.3522 0001591 273.7014 216.8846 15.72023376  3842"}}, "geometry": {"type": "Point", "coordinates": [138.777759305575, -42.250006450070416]}}, {"type": "Feature", "properties": {"norad_id": 66820, "name": "KOMPSAT-7", "group": "last-30-days", "lat": -56.14433680983686, "lon": 106.87035320680047, "alt_km": 566.9139506459296, "timestamp": "2025-12-18T15:47:09.960540+00:00", "meta": {"OBJECT_NAME": "KOMPSAT-7", "OBJECT_ID": "2025-279A", "EPOCH": "2025-12-15T00:17:19.244256", "MEAN_MOTION": 15.0015594, "ECCENTRICITY": 0.00093948, "INCLINATION": 97.641, "RA_OF_ASC_NODE": 294.8339, "ARG_OF_PERICENTER": 252.0315, "MEAN_ANOMALY": 107.9885, "EPHEMERIS_TYPE": 0, "CLASSIFICATION_TYPE": "U", "NORAD_CAT_ID": 66820, "ELEMENT_SET_NO": 999, "REV_AT_EPOCH": 199, "BSTAR": 0.00025788518, "MEAN_MOTION_DOT": 3.163e-05, "MEAN_MOTION_DDOT": 0}, "tle": {"line1": "1 66820U 25279A   25349.01202829  .00003163  00000+0  25789-3 0  9990", "line2": "2 66820  97.6410 294.8339 0009394 252.0315 107.9885 15.00155940  1999"}}, "geometry": {"type": "Point", "coordinates": [106.87035320680047, -56.14433680983686]}}, {"type": "Feature", "properties": {"norad_id": 66821, "name": "STARLINK-35966", "group": "last-30-days", "lat": -49.57018790647108, "lon": 156.9052543463763, "alt_km": 400.91103843063684, "timestamp": "2025-12-18T15:47:09.960551+00:00", "meta": {"OBJECT_NAME": "STARLINK-35966", "OBJECT_ID": "2025-280A", "EPOCH": "2025-12-18T06:00:02.999808", "MEAN_MOTION": 15.58738783, "ECCENTRICITY": 0.00032882, "INCLINATION": 69.9991, "RA_OF_ASC_NODE": 183.3421, "ARG_OF_PERICENTER": 275.0486, "MEAN_ANOMALY": 265.0167, "EPHEMERIS_TYPE": 0, "CLASSIFICATION_TYPE": "U", "NORAD_CAT_ID": 66821, "ELEMENT_SET_NO": 999, "REV_AT_EPOCH": 378, "BSTAR": -0.029476265, "MEAN_MOTION_DOT": -0.02002322, "MEAN_MOTION_DDOT": 0}, "tle": {"line1": "1 66821U 25280A   25352.25003472 -.02002322  00000+0 -29476-1 0  9991", "line2": "2 66821  69.9991 183.3421 0003288 275.0486 265.0167 15.58738783  3783"}}, "geometry": {"type": "Point", "coordinates": [156.9052543463763, -49.57018790647108]}}, {"type": "Feature", "properties": {"norad_id": 66822, "name": "STARLINK-35958", "group": "last-30-days", "lat": -47.95160356594579, "lon": 158.40882131956226, "alt_km": 400.8096622851772, "timestamp": "2025-12-18T15:47:09.960561+00:00", "meta": {"OBJECT_NAME": "STARLINK-35958", "OBJECT_ID": "2025-280B", "EPOCH": "2025-12-18T06:00:02.999808", "MEAN_MOTION": 15.58755942, "ECCENTRICITY": 0.00034432, "INCLINATION": 70.0072, "RA_OF_ASC_NODE": 183.3418, "ARG_OF_PERICENTER": 278.3786, "MEAN_ANOMALY": 263.5955, "EPHEMERIS_TYPE": 0, "CLASSIFICATION_TYPE": "U", "NORAD_CAT_ID": 66822, "ELEMENT_SET_NO": 999, "REV_AT_EPOCH": 378, "BSTAR": -0.030183462, "MEAN_MOTION_DOT": -0.02045606, "MEAN_MOTION_DDOT": 0}, "tle": {"line1": "1 66822U 25280B   25352.25003472 -.02045606  00000+0 -30183-1 0  9991", "line2": "2 66822  70.0072 183.3418 0003443 278.3786 263.5955 15.58755942  3789"}}, "geometry": {"type": "Point", "coordinates": [158.40882131956226, -47.95160356594579]}}, {"type": "Feature", "properties": {"norad_id": 66823, "name": "STARLINK-35957", "group": "last-30-days", "lat": -46.29567985949822, "lon": 159.82203765694942, "alt_km": 400.8148928280534, "timestamp": "2025-12-18T15:47:09.960571+00:00", "meta": {"OBJECT_NAME": "STARLINK-35957", "OBJECT_ID": "2025-280C", "EPOCH": "2025-12-18T06:00:02.999808", "MEAN_MOTION": 15.58755578, "ECCENTRICITY": 0.00034074, "INCLINATION": 70.0071, "RA_OF_ASC_NODE": 183.3389, "ARG_OF_PERICENTER": 278.2702, "MEAN_ANOMALY": 265.6217, "EPHEMERIS_TYPE": 0, "CLASSIFICATION_TYPE": "U", "NORAD_CAT_ID": 66823, "ELEMENT_SET_NO": 999, "REV_AT_EPOCH": 378, "BSTAR": -0.030166045, "MEAN_MOTION_DOT": -0.02044517, "MEAN_MOTION_DDOT": 0}, "tle": {"line1": "1 66823U 25280C   25352.25003472 -.02044517  00000+0 -30166-1 0  9993", "line2": "2 66823  70.0071 183.3389 0003407 278.2702 265.6217 15.58755578  3782"}}, "geometry": {"type": "Point", "coordinates": [159.82203765694942, -46.29567985949822]}}, {"type": "Feature", "properties": {"norad_id": 66824, "name": "STARLINK-35896", "group": "last-30-days", "lat": -44.62260705225207, "lon": 161.15327381744635, "alt_km": 400.91244052527054, "timestamp": "2025-12-18T15:47:09.960581+00:00", "meta": {"OBJECT_NAME": "STARLINK-35896", "OBJECT_ID": "2025-280D", "EPOCH": "2025-12-18T06:00:02.999808", "MEAN_MOTION": 15.58755677, "ECCENTRICITY": 0.00032991, "INCLINATION": 70.0071, "RA_OF_ASC_NODE": 183.3369, "ARG_OF_PERICENTER": 275.578, "MEAN_ANOMALY": 270.2295, "EPHEMERIS_TYPE": 0, "CLASSIFICATION_TYPE": "U", "NORAD_CAT_ID": 66824, "ELEMENT_SET_NO": 999, "REV_AT_EPOCH": 378, "BSTAR": -0.03011934, "MEAN_MOTION_DOT": -0.02041657, "MEAN_MOTION_DDOT": 0}, "tle": {"line1": "1 66824U 25280D   25352.25003472 -.02041657  00000+0 -30119-1 0  9994", "line2": "2 66824  70.0071 183.3369 0003299 275.5780 270.2295 15.58755677  3784"}}, "geometry": {"type": "Point", "coordinates": [161.15327381744635, -44.62260705225207]}}, {"type": "Feature", "properties": {"norad_id": 66825, "name": "STARLINK-35476", "group": "last-30-days", "lat": -42.92944232592633, "lon": 162.41360658561217, "alt_km": 401.13173408793773, "timestamp": "2025-12-18T15:47:09.960591+00:00", "meta": {"OBJECT_NAME": "STARLINK-35476", "OBJECT_ID": "2025-280E", "EPOCH": "2025-12-18T06:00:02.999808", "MEAN_MOTION": 15.58764973, "ECCENTRICITY": 0.00032322, "INCLINATION": 70.0076, "RA_OF_ASC_NODE": 183.3345, "ARG_OF_PERICENTER": 268.1556, "MEAN_ANOMALY": 279.568, "EPHEMERIS_TYPE": 0, "CLASSIFICATION_TYPE": "U", "NORAD_CAT_ID": 66825, "ELEMENT_SET_NO": 999, "REV_AT_EPOCH": 363, "BSTAR": -0.030288007, "MEAN_MOTION_DOT": -0.02052212, "MEAN_MOTION_DDOT": 0}, "tle": {"line1": "1 66825U 25280E   25352.25003472 -.02052212  00000+0 -30288-1 0  9991", "line2": "2 66825  70.0076 183.3345 0003232 268.1556 279.5680 15.58764973  3633"}}, "geometry": {"type": "Point", "coordinates": [162.41360658561217, -42.92944232592633]}}, {"type": "Feature", "properties": {"norad_id": 66826, "name": "STARLINK-35898", "group": "last-30-days", "lat": -41.235437422269136, "lon": 163.59622919794575, "alt_km": 400.88270787976217, "timestamp": "2025-12-18T15:47:09.960603+00:00", "meta": {"OBJECT_NAME": "STARLINK-35898", "OBJECT_ID": "2025-280F", "EPOCH": "2025-12-18T06:00:02.999808", "MEAN_MOTION": 15.58758115, "ECCENTRICITY": 0.00032752, "INCLINATION": 70.0071, "RA_OF_ASC_NODE": 183.3317, "ARG_OF_PERICENTER": 275.2935, "MEAN_ANOMALY": 274.347, "EPHEMERIS_TYPE": 0, "CLASSIFICATION_TYPE": "U", "NORAD_CAT_ID": 66826, "ELEMENT_SET_NO": 999, "REV_AT_EPOCH": 378, "BSTAR": -0.030135435, "MEAN_MOTION_DOT": -0.02042754, "MEAN_MOTION_DDOT": 0}, "tle": {"line1": "1 66826U 25280F   25352.25003472 -.02042754  00000+0 -30135-1 0  9993", "line2": "2 66826  70.0071 183.3317 0003275 275.2935 274.3470 15.58758115  3782"}}, "geometry": {"type": "Point", "coordinates": [163.59622919794575, -41.235437422269136]}}]}